#dP2019  1 14  0  0  0.00000000     289 ORBIT IGS14 BHN ESOC                    
## 2036  86400.00000000   300.00000000 58497 0.0000000000000
+   96   G18G14G13G28G21G11G22G07G05G20G31G17G15G16G29G12G19
+        G23G02G25G01G30G24G27G06G09G03G32G26G08G10G04R09R10
+        R20R19R13R01R22R23R24R16R04R08R03R07R02R17R11R18R21
+        R05R15E11E12E19E18E14E26E24E30E08E09E01E02E07E03E04
+        E05E21E25E27E31E36E13E15E33C11C12C14C19C20C28C22C21
+        C33C34C06C07C08C09C10C13J01J02J03  0  0  0  0  0  0
++         5  4  4  4  4  5  5  4  4  5  4  4  4  4  5  4  5
++         5  5  4  5  4  4  5  5  4  5  4  5  4  5  5  5  5
++         6  6  6  6  4  5  6  6  5  5  5  5  4  5  4  5  4
++         6  4  4  5  5  5  4  5  4  4  5  4  5  4  5  5  4
++         5  5  4  5  5  5  5  5  4  6  5  5  6  6  6  6  5
++         6  6  7  6  6  6  6  6  7  7  7  0  0  0  0  0  0
%c M  cc GPS ccc cccc cccc cccc cccc ccccc ccccc ccccc ccccc
%c cc cc ccc ccc cccc cccc cccc cccc ccccc ccccc ccccc ccccc
%f  0.0000000  0.000000000  0.00000000000  0.000000000000000
%f  0.0000000  0.000000000  0.00000000000  0.000000000000000
%i    0    0    0    0      0      0      0      0         0
%i    0    0    0    0      0      0      0      0         0
/* CCCCCCCCCCCCCCCCCCCCCCCCCCCCCCCCCCCCCCCCCCCCCCCCCCCCCCCCCCCCCCCCCCCCCCCCCCCCC
/* CCCCCCCCCCCCCCCCCCCCCCCCCCCCCCCCCCCCCCCCCCCCCCCCCCCCCCCCCCCCCCCCCCCCCCCCCCCCC
/* CCCCCCCCCCCCCCCCCCCCCCCCCCCCCCCCCCCCCCCCCCCCCCCCCCCCCCCCCCCCCCCCCCCCCCCCCCCCC
/* PCV:IGS14      OL/AL:EOT11A   NONE     YN ORB:CoN CLK:CoN
*  2019  1 14 18 15  0.00000000
PG18 -19492.730262 -17788.343143   3148.424624     15.774136
PG14   4128.060089 -15489.478551  21453.373703    -93.155792
PG13  12608.425643  12864.838393 -19648.086974    -78.322121
PG28 -13374.954449  22550.485178  -3895.358110    761.923483
PG21  13636.344725  -7321.785615 -20772.139724   -269.134264
PG11 -24621.950166  -9037.793704   2781.177026   -675.333557
PG22 -13604.680956  -9582.020773  20940.408514   -622.685022
PG07 -16088.656276   3371.618846 -20707.504672     51.728383
PG05   5378.796506  20378.066216 -16160.086047      0.805908
PG20  14205.979041 -18355.094292 -12906.363973    521.120598
PG31  -3813.398527 -21486.850047  14830.150919     65.776448
PG17 -14263.522951  13834.679541  17982.571333     -4.764411
PG15  22456.787889   4713.294987 -13955.440361   -332.245258
PG16  -3178.061555 -20077.003618 -17022.368347    -12.723982
PG29  26254.056251  -3814.336397  -1258.451393    293.332467
PG12  13789.386086   4882.922231  21965.538476    276.375507
PG19  -4866.040405  14678.400387  21318.910475   -363.369754
PG23 -26156.663546    684.415378   6006.017677   -200.532251
PG02  13167.402118  22001.673482   7899.332468   -113.062583
PG25  16604.535625  -7879.140616  18885.943216   -705.884516
PG01 -20521.806628 -10829.027556  13031.721431   -145.354436
PG30  -7921.143228  14483.899831 -20760.130278    -35.871487
PG24  21241.764007  13622.446440   8651.333428    -60.795844
PG27 -10460.653956 -12539.845583 -21090.799720    -49.010007
PG06   2091.652647  20339.808476  16980.794248    296.908985
PG09 -24926.990107   8041.849925  -4491.313286    471.737559
PG03 -15497.244163  -1183.139274  21491.194263    177.174070
PG32  11425.205958 -15340.412334  18423.857633   -274.838483
PG26   2282.697478 -25068.366522  -8214.348254     96.343134
PG08 -19976.902740  -7314.355454 -15967.729607   -129.061254
PG10  11097.226885 -23759.685758  -3456.454219    135.602929
PG04 -21568.241229  10933.746553 -10975.394694     82.873462
PR09 -11695.543508  -2230.021682 -22552.833135     48.986609
PR10  -6350.156347  14468.774040 -20018.965766     39.651142
PR20 -24326.301258  -5827.309479   5130.286985   -365.605463
PR19 -17617.397878 -12427.635104 -13623.669070    -62.108683
PR13  11639.297918   3352.426792  22431.213155    -19.002488
PR01   5606.374470   9917.278457 -22826.397063     37.928590
PR22   3897.035302  11805.800601  22262.216725    -64.309656
PR23  20945.531288  11123.751221   9390.810973    203.215386
PR24  24206.968169   4592.948243  -6593.079763   -176.038179
PR16 -10455.241956 -20336.678953 -11199.148606    -11.654806
PR04   7407.943426 -17778.757636  16723.746610    291.298240
PR08  -8094.439989  17989.151872 -16132.249481     19.552574
PR03  18604.192928 -17415.588759    227.399186    154.515014
PR07 -18520.706469  17558.087452   -612.686819    -55.850224
PR02  18546.781281  -6743.873896 -16098.786447    349.367392
PR17  15774.357175  -4459.317969 -19541.086458    196.159439
PR11   2965.354845  24770.129524  -5211.241526    -53.498315
PR18  -1468.930708 -11327.621190 -22793.140653     29.943995
PR21 -15242.748675   4713.234243  19901.043288    -25.565886
PR05  -7241.460292  -8086.238851  23086.035686     19.954580
PR15  -2532.664525 -24628.904200   6141.185623     99.295803
PE11  24888.235506   1182.953958 -15965.183708   5719.777576
PE12  25228.558516  15278.038977   2421.060785   5942.253953
PE19  -2154.450668  19554.569997 -22121.736912     -9.130085
PE18  24946.624926 -10427.530195  -9717.586120   5606.403930
PE14 -28346.054847  -1245.178066  -5379.820266   6459.931519
PE26 -10121.526984  13254.986711  24464.540423   5019.908154
PE24  15904.340212  -5716.291717  24289.736893   6286.056693
PE30 -13773.493072 -16517.004904 -20338.496866   5188.623910
PE08 -18900.142880  -6354.751002  21869.606479   6423.451793
PE09  26711.448108  -9893.902662  -8074.545915   6558.292569
PE01   3610.975982  29049.909359   4403.260951   -520.750683
PE02  -3637.317177 -29030.597111  -4442.739864     43.319811
PE07 -26811.084657   9613.752444   8044.159816   -112.559664
PE03     26.777840 -18950.214221  22736.229683   -122.168577
PE04  18862.030420   6687.239358 -21811.591437   -200.022790
PE05  19013.145580 -20186.080287  10348.752450    125.080140
PE21  -8812.274521  24300.117312 -14426.370455   -514.434486
PE25   8838.539040 -24268.142186  14465.529150   1923.876005
PE27 -15900.114211   5202.691903 -24415.249867    549.744413
PE31  13662.159197  16923.712196  20085.257986    932.668315
PE36   9815.430488 -13247.642788 -24570.888063    759.669247
PE13 -24952.386403  -1223.091564  15889.675649    381.724262
PE15 -25478.777431 -14927.510223  -2028.768607    922.960837
PE33  11084.479362  19958.820088  18851.150494    847.912850
PC11   8656.367286  15501.320631  21608.074952    -92.156960
PC12 -20919.714069   8486.845457  16416.233887    345.833391
PC14  -8954.226029  24378.077206 -10227.298224    722.879937
PC19  -8080.448290 -15079.855549  22066.948070     33.843353
PC20   7761.533141 -24244.315621  11472.844015    282.826229
PC28  27627.878564   3964.396657    247.738690     41.990753
PC22 -19356.146251   2896.833522  19883.637816    388.315356
PC21 -19345.596851  19145.128095   6140.250151    403.752717
PC33   8136.366112  15079.994179 -22021.552105      1.604918
PC34  -1927.083699  15881.907937  22869.177013    486.727896
PC06 -24162.369984  26075.860595 -22665.553110    273.514555
PC07 -14234.483859  37370.266237 -12515.809995    200.119400
PC08  -5978.052744  22809.001424  35075.200773     88.912624
PC09  -9549.381370  26459.836620 -31322.154084    449.363104
PC10  -3774.291165  41768.018207   1186.334413   -407.734841
PC13   5253.364323  29545.070841  29773.282677   -484.727316
PJ01 -31703.869065  27326.696180  10023.529575   -214.100069
PJ02 -19159.663861  24409.906809 -24157.079939     -0.756163
PJ03 -27569.269794  28302.786766  20284.435936      3.889197
EOF
